1 51850U 22021A   24239.17603377  .00000086  00000+0  00000+0 0  9992
2 51850   0.0011  69.4988 0000465 137.7483  54.0351  1.00273325  9184